<?xml version="1.0" encoding="UTF-8"?>
<ndm xmlns:xsi="http://www.w3.org/2001/XMLSchema-instance" xsi:noNamespaceSchemaLocation="https://sanaregistry.org/r/ndmxml_unqualified/ndmxml-2.0.0-master-2.0.xsd">
<omm id="CCSDS_OMM_VERS" version="2.0">
<header><CREATION_DATE/><ORIGINATOR/></header><body><segment><metadata><OBJECT_NAME>IRIDIUM 171</OBJECT_NAME><OBJECT_ID>2019-002H</OBJECT_ID><CENTER_NAME>EARTH</CENTER_NAME><REF_FRAME>TEME</REF_FRAME><TIME_SYSTEM>UTC</TIME_SYSTEM><MEAN_ELEMENT_THEORY>SGP4</MEAN_ELEMENT_THEORY></metadata><data><meanElements><EPOCH>2023-11-10T18:01:54.408288</EPOCH><MEAN_MOTION>14.34209379</MEAN_MOTION><ECCENTRICITY>.0002305</ECCENTRICITY><INCLINATION>86.4022</INCLINATION><RA_OF_ASC_NODE>30.5648</RA_OF_ASC_NODE><ARG_OF_PERICENTER>96.0133</ARG_OF_PERICENTER><MEAN_ANOMALY>264.1325</MEAN_ANOMALY></meanElements><tleParameters><EPHEMERIS_TYPE>0</EPHEMERIS_TYPE><CLASSIFICATION_TYPE>U</CLASSIFICATION_TYPE><NORAD_CAT_ID>43929</NORAD_CAT_ID><ELEMENT_SET_NO>999</ELEMENT_SET_NO><REV_AT_EPOCH>25287</REV_AT_EPOCH><BSTAR>.53125E-4</BSTAR><MEAN_MOTION_DOT>.169E-5</MEAN_MOTION_DOT><MEAN_MOTION_DDOT>0</MEAN_MOTION_DDOT></tleParameters></data></segment></body></omm>
<omm id="CCSDS_OMM_VERS" version="2.0">
<header><CREATION_DATE/><ORIGINATOR/></header><body><segment><metadata><OBJECT_NAME>IRIDIUM 170</OBJECT_NAME><OBJECT_ID>2019-002J</OBJECT_ID><CENTER_NAME>EARTH</CENTER_NAME><REF_FRAME>TEME</REF_FRAME><TIME_SYSTEM>UTC</TIME_SYSTEM><MEAN_ELEMENT_THEORY>SGP4</MEAN_ELEMENT_THEORY></metadata><data><meanElements><EPOCH>2023-11-10T17:22:53.161824</EPOCH><MEAN_MOTION>14.72246122</MEAN_MOTION><ECCENTRICITY>.0002286</ECCENTRICITY><INCLINATION>86.6143</INCLINATION><RA_OF_ASC_NODE>30.4297</RA_OF_ASC_NODE><ARG_OF_PERICENTER>97.9542</ARG_OF_PERICENTER><MEAN_ANOMALY>262.1934</MEAN_ANOMALY></meanElements><tleParameters><EPHEMERIS_TYPE>0</EPHEMERIS_TYPE><CLASSIFICATION_TYPE>U</CLASSIFICATION_TYPE><NORAD_CAT_ID>43930</NORAD_CAT_ID><ELEMENT_SET_NO>999</ELEMENT_SET_NO><REV_AT_EPOCH>25956</REV_AT_EPOCH><BSTAR>.29157E-3</BSTAR><MEAN_MOTION_DOT>.1863E-4</MEAN_MOTION_DOT><MEAN_MOTION_DDOT>0</MEAN_MOTION_DDOT></tleParameters></data></segment></body></omm>
<omm id="CCSDS_OMM_VERS" version="2.0">
<header><CREATION_DATE/><ORIGINATOR/></header><body><segment><metadata><OBJECT_NAME>IRIDIUM 167</OBJECT_NAME><OBJECT_ID>2019-002K</OBJECT_ID><CENTER_NAME>EARTH</CENTER_NAME><REF_FRAME>TEME</REF_FRAME><TIME_SYSTEM>UTC</TIME_SYSTEM><MEAN_ELEMENT_THEORY>SGP4</MEAN_ELEMENT_THEORY></metadata><data><meanElements><EPOCH>2023-11-10T22:54:10.902240</EPOCH><MEAN_MOTION>14.34217441</MEAN_MOTION><ECCENTRICITY>.000219</ECCENTRICITY><INCLINATION>86.4012</INCLINATION><RA_OF_ASC_NODE>30.2936</RA_OF_ASC_NODE><ARG_OF_PERICENTER>97.2608</ARG_OF_PERICENTER><MEAN_ANOMALY>262.8837</MEAN_ANOMALY></meanElements><tleParameters><EPHEMERIS_TYPE>0</EPHEMERIS_TYPE><CLASSIFICATION_TYPE>U</CLASSIFICATION_TYPE><NORAD_CAT_ID>43931</NORAD_CAT_ID><ELEMENT_SET_NO>999</ELEMENT_SET_NO><REV_AT_EPOCH>25290</REV_AT_EPOCH><BSTAR>.23819E-4</BSTAR><MEAN_MOTION_DOT>.86E-6</MEAN_MOTION_DOT><MEAN_MOTION_DDOT>0</MEAN_MOTION_DDOT></tleParameters></data></segment></body></omm>
<omm id="CCSDS_OMM_VERS" version="2.0">
<header><CREATION_DATE/><ORIGINATOR/></header><body><segment><metadata><OBJECT_NAME>IRIDIUM 181</OBJECT_NAME><OBJECT_ID>2023-068S</OBJECT_ID><CENTER_NAME>EARTH</CENTER_NAME><REF_FRAME>TEME</REF_FRAME><TIME_SYSTEM>UTC</TIME_SYSTEM><MEAN_ELEMENT_THEORY>SGP4</MEAN_ELEMENT_THEORY></metadata><data><meanElements><EPOCH>2023-11-11T09:55:11.181504</EPOCH><MEAN_MOTION>14.43585513</MEAN_MOTION><ECCENTRICITY>.0003162</ECCENTRICITY><INCLINATION>86.8625</INCLINATION><RA_OF_ASC_NODE>73.2190</RA_OF_ASC_NODE><ARG_OF_PERICENTER>105.8573</ARG_OF_PERICENTER><MEAN_ANOMALY>254.2977</MEAN_ANOMALY></meanElements><tleParameters><EPHEMERIS_TYPE>0</EPHEMERIS_TYPE><CLASSIFICATION_TYPE>U</CLASSIFICATION_TYPE><NORAD_CAT_ID>56726</NORAD_CAT_ID><ELEMENT_SET_NO>999</ELEMENT_SET_NO><REV_AT_EPOCH>2557</REV_AT_EPOCH><BSTAR>.22857E-3</BSTAR><MEAN_MOTION_DOT>.793E-5</MEAN_MOTION_DOT><MEAN_MOTION_DDOT>0</MEAN_MOTION_DDOT></tleParameters></data></segment></body></omm>
<omm id="CCSDS_OMM_VERS" version="2.0">
<header><CREATION_DATE/><ORIGINATOR/></header><body><segment><metadata><OBJECT_NAME>IRIDIUM 177</OBJECT_NAME><OBJECT_ID>2023-068T</OBJECT_ID><CENTER_NAME>EARTH</CENTER_NAME><REF_FRAME>TEME</REF_FRAME><TIME_SYSTEM>UTC</TIME_SYSTEM><MEAN_ELEMENT_THEORY>SGP4</MEAN_ELEMENT_THEORY></metadata><data><meanElements><EPOCH>2023-11-11T12:48:46.803456</EPOCH><MEAN_MOTION>14.80196660</MEAN_MOTION><ECCENTRICITY>.0002077</ECCENTRICITY><INCLINATION>86.1995</INCLINATION><RA_OF_ASC_NODE>59.1550</RA_OF_ASC_NODE><ARG_OF_PERICENTER>92.7203</ARG_OF_PERICENTER><MEAN_ANOMALY>267.4256</MEAN_ANOMALY></meanElements><tleParameters><EPHEMERIS_TYPE>0</EPHEMERIS_TYPE><CLASSIFICATION_TYPE>U</CLASSIFICATION_TYPE><NORAD_CAT_ID>56727</NORAD_CAT_ID><ELEMENT_SET_NO>999</ELEMENT_SET_NO><REV_AT_EPOCH>2603</REV_AT_EPOCH><BSTAR>.13614E-3</BSTAR><MEAN_MOTION_DOT>.106E-4</MEAN_MOTION_DOT><MEAN_MOTION_DDOT>0</MEAN_MOTION_DDOT></tleParameters></data></segment></body></omm>
<omm id="CCSDS_OMM_VERS" version="2.0">
<header><CREATION_DATE/><ORIGINATOR/></header><body><segment><metadata><OBJECT_NAME>IRIDIUM 174</OBJECT_NAME><OBJECT_ID>2023-068U</OBJECT_ID><CENTER_NAME>EARTH</CENTER_NAME><REF_FRAME>TEME</REF_FRAME><TIME_SYSTEM>UTC</TIME_SYSTEM><MEAN_ELEMENT_THEORY>SGP4</MEAN_ELEMENT_THEORY></metadata><data><meanElements><EPOCH>2023-11-10T23:42:11.569824</EPOCH><MEAN_MOTION>14.80199484</MEAN_MOTION><ECCENTRICITY>.0001914</ECCENTRICITY><INCLINATION>86.2000</INCLINATION><RA_OF_ASC_NODE>59.4994</RA_OF_ASC_NODE><ARG_OF_PERICENTER>93.8575</ARG_OF_PERICENTER><MEAN_ANOMALY>266.2865</MEAN_ANOMALY></meanElements><tleParameters><EPHEMERIS_TYPE>0</EPHEMERIS_TYPE><CLASSIFICATION_TYPE>U</CLASSIFICATION_TYPE><NORAD_CAT_ID>56728</NORAD_CAT_ID><ELEMENT_SET_NO>999</ELEMENT_SET_NO><REV_AT_EPOCH>2595</REV_AT_EPOCH><BSTAR>.11589E-3</BSTAR><MEAN_MOTION_DOT>.906E-5</MEAN_MOTION_DOT><MEAN_MOTION_DDOT>0</MEAN_MOTION_DDOT></tleParameters></data></segment></body></omm>
<omm id="CCSDS_OMM_VERS" version="2.0">
<header><CREATION_DATE/><ORIGINATOR/></header><body><segment><metadata><OBJECT_NAME>IRIDIUM 178</OBJECT_NAME><OBJECT_ID>2023-068V</OBJECT_ID><CENTER_NAME>EARTH</CENTER_NAME><REF_FRAME>TEME</REF_FRAME><TIME_SYSTEM>UTC</TIME_SYSTEM><MEAN_ELEMENT_THEORY>SGP4</MEAN_ELEMENT_THEORY></metadata><data><meanElements><EPOCH>2023-11-10T23:34:30.075456</EPOCH><MEAN_MOTION>14.80202562</MEAN_MOTION><ECCENTRICITY>.0001965</ECCENTRICITY><INCLINATION>86.5777</INCLINATION><RA_OF_ASC_NODE>66.5756</RA_OF_ASC_NODE><ARG_OF_PERICENTER>87.8285</ARG_OF_PERICENTER><MEAN_ANOMALY>272.3162</MEAN_ANOMALY></meanElements><tleParameters><EPHEMERIS_TYPE>0</EPHEMERIS_TYPE><CLASSIFICATION_TYPE>U</CLASSIFICATION_TYPE><NORAD_CAT_ID>56729</NORAD_CAT_ID><ELEMENT_SET_NO>999</ELEMENT_SET_NO><REV_AT_EPOCH>2595</REV_AT_EPOCH><BSTAR>.24018E-3</BSTAR><MEAN_MOTION_DOT>.185E-4</MEAN_MOTION_DOT><MEAN_MOTION_DDOT>0</MEAN_MOTION_DDOT></tleParameters></data></segment></body></omm>
<omm id="CCSDS_OMM_VERS" version="2.0">
<header><CREATION_DATE/><ORIGINATOR/></header><body><segment><metadata><OBJECT_NAME>IRIDIUM 179</OBJECT_NAME><OBJECT_ID>2023-068W</OBJECT_ID><CENTER_NAME>EARTH</CENTER_NAME><REF_FRAME>TEME</REF_FRAME><TIME_SYSTEM>UTC</TIME_SYSTEM><MEAN_ELEMENT_THEORY>SGP4</MEAN_ELEMENT_THEORY></metadata><data><meanElements><EPOCH>2023-11-11T07:33:24.534720</EPOCH><MEAN_MOTION>14.80207369</MEAN_MOTION><ECCENTRICITY>.0001809</ECCENTRICITY><INCLINATION>86.6795</INCLINATION><RA_OF_ASC_NODE>67.8128</RA_OF_ASC_NODE><ARG_OF_PERICENTER>92.4930</ARG_OF_PERICENTER><MEAN_ANOMALY>267.6499</MEAN_ANOMALY></meanElements><tleParameters><EPHEMERIS_TYPE>0</EPHEMERIS_TYPE><CLASSIFICATION_TYPE>U</CLASSIFICATION_TYPE><NORAD_CAT_ID>56730</NORAD_CAT_ID><ELEMENT_SET_NO>999</ELEMENT_SET_NO><REV_AT_EPOCH>2600</REV_AT_EPOCH><BSTAR>.40189E-3</BSTAR><MEAN_MOTION_DOT>.3078E-4</MEAN_MOTION_DOT><MEAN_MOTION_DDOT>0</MEAN_MOTION_DDOT></tleParameters></data></segment></body></omm>
</ndm>
