IRIDIUM 171             
1 43929U 19002H   23314.75132417  .00000169  00000+0  53125-4 0  9997
2 43929  86.4022  30.5648 0002305  96.0133 264.1325 14.34209379252878
IRIDIUM 170             
1 43930U 19002J   23314.72422641  .00001863  00000+0  29157-3 0  9996
2 43930  86.6143  30.4297 0002286  97.9542 262.1934 14.72246122259563
IRIDIUM 167             
1 43931U 19002K   23314.95429285  .00000086  00000+0  23819-4 0  9999
2 43931  86.4012  30.2936 0002190  97.2608 262.8837 14.34217441252905
IRIDIUM 181             
1 56726U 23068S   23315.41332386  .00000793  00000+0  22857-3 0  9994
2 56726  86.8625  73.2190 0003162 105.8573 254.2977 14.43585513 25570
IRIDIUM 177             
1 56727U 23068T   23315.53387504  .00001060  00000+0  13614-3 0  9999
2 56727  86.1995  59.1550 0002077  92.7203 267.4256 14.80196660 26035
IRIDIUM 174             
1 56728U 23068U   23314.98763391  .00000906  00000+0  11589-3 0  9997
2 56728  86.2000  59.4994 0001914  93.8575 266.2865 14.80199484 25952
IRIDIUM 178             
1 56729U 23068V   23314.98229254  .00001850  00000+0  24018-3 0  9993
2 56729  86.5777  66.5756 0001965  87.8285 272.3162 14.80202562 25959
IRIDIUM 179             
1 56730U 23068W   23315.31486730  .00003078  00000+0  40189-3 0  9998
2 56730  86.6795  67.8128 0001809  92.4930 267.6499 14.80207369 26002
